{"type": "FeatureCollection", "features": [{"type": "Feature", "properties": {"name": "India EEZ (simplified)", "kind": "EEZ", "sovereign": "India", "marpol_regime": "standard", "source": "shipped simplified from Marine Regions v11"}, "geometry": {"type": "Polygon", "coordinates": [[[68.0, 8.0], [77.5, 6.5], [82.5, 5.0], [87.0, 6.0], [93.5, 6.0], [94.5, 14.0], [92.0, 22.0], [88.5, 22.5], [80.0, 15.0], [79.5, 10.5], [77.0, 8.0], [72.5, 15.0], [68.0, 22.5], [66.5, 22.5], [66.5, 15.0], [68.0, 8.0]]]}}, {"type": "Feature", "properties": {"name": "MARPOL Special Area \u2014 Oman Area of the Arabian Sea", "kind": "SPECIAL_AREA", "sovereign": "IMO", "marpol_regime": "special_area", "source": "MARPOL Annex I Reg. 1.11.5"}, "geometry": {"type": "Polygon", "coordinates": [[[56.0, 22.0], [72.0, 22.0], [72.0, 16.0], [56.0, 16.0], [56.0, 22.0]]]}}]}